[{"OBJECT_NAME":"HORS 2","OBJECT_ID":"2023-091AG","EPOCH":"2026-03-09T22:11:34.810944","MEAN_MOTION":15.2928008,"ECCENTRICITY":0.00098173,"INCLINATION":97.5195,"RA_OF_ASC_NODE":134.7443,"ARG_OF_PERICENTER":79.3164,"MEAN_ANOMALY":280.9181,"EPHEMERIS_TYPE":0,"CLASSIFICATION_TYPE":"U","NORAD_CAT_ID":57196,"ELEMENT_SET_NO":999,"REV_AT_EPOCH":14934,"BSTAR":0.00059338338,"MEAN_MOTION_DOT":0.00016821,"MEAN_MOTION_DDOT":0},{"OBJECT_NAME":"STARLINK-31756","OBJECT_ID":"2024-183J","EPOCH":"2026-03-09T11:21:03.667104","MEAN_MOTION":15.30187948,"ECCENTRICITY":0.0001087,"INCLINATION":53.1601,"RA_OF_ASC_NODE":143.7994,"ARG_OF_PERICENTER":100.4447,"MEAN_ANOMALY":259.6676,"EPHEMERIS_TYPE":0,"CLASSIFICATION_TYPE":"U","NORAD_CAT_ID":61517,"ELEMENT_SET_NO":999,"REV_AT_EPOCH":7961,"BSTAR":1.1884877e-5,"MEAN_MOTION_DOT":-7.0e-8,"MEAN_MOTION_DDOT":0}]
